{"_default": {"1": {"norad_id": "25544", "name": "ISS (ZARYA)", "tle1": "1 25544U 98067A   26163.80312907  .00008495  00000-0  16106-3 0  9991", "tle2": "2 25544  51.6335 321.7912 0004900 178.5917 181.5086 15.49196054571074", "object_type": "PAYLOAD", "criticality_score": 10.0, "last_updated": "2026-06-13T11:16:06.819600+00:00", "maneuver_count": 0, "owner": "ISS"}, "26": {"norad_id": "39417", "name": "ZACUBE", "tle1": "1 39417U 13066B   26163.87468678  .00003629  00000-0  28323-3 0  9993", "tle2": "2 39417  97.8083 126.1882 0040346 262.7759  96.8878 15.01164573680085", "object_type": "PAYLOAD", "criticality_score": 9.0, "last_updated": "2026-06-13T11:16:06.819600+00:00", "maneuver_count": 0, "owner": "SAFR"}, "35": {"norad_id": "32953", "name": "YUBELEINY", "tle1": "1 32953U 08025A   26163.83312645 -.00000002  00000-0 -84848-4 0  9997", "tle2": "2 32953  82.5048 358.1498 0019021 323.7025  36.2763 12.43178889819156", "object_type": "PAYLOAD", "criticality_score": 9.0, "last_updated": "2026-06-13T11:16:06.819600+00:00", "maneuver_count": 0, "owner": "CIS"}, "37": {"norad_id": "27939", "name": "MOZHAYETS 4", "tle1": "1 27939U 03042A   26163.87473065  .00000779  00000-0  12834-3 0  9991", "tle2": "2 27939  98.3470 348.1124 0010004 285.2083 182.2080 14.73459704214911", "object_type": "PAYLOAD", "criticality_score": 9.0, "last_updated": "2026-06-13T11:16:06.819600+00:00", "maneuver_count": 0, "owner": "CIS"}, "39": {"norad_id": "14781", "name": "OSCAR 11 (UOSAT 2)", "tle1": "1 14781U 84021B   26163.85854639  .00001300  00000-0  13794-3 0  9993", "tle2": "2 14781  97.8056 129.4816 0007224 187.2245 172.8870 14.90773494256489", "object_type": "PAYLOAD", "criticality_score": 7.0, "last_updated": "2026-06-13T11:16:06.819600+00:00", "maneuver_count": 0, "owner": "UK"}, "40": {"norad_id": "7530", "name": "OSCAR-7", "tle1": "1 07530U 74089B   26163.26418550 -.00000029  00000-0  11075-3 0  9991", "tle2": "2 07530 101.9901 176.4594 0012519 139.2870 231.9396 12.53697997359909", "object_type": "PAYLOAD", "criticality_score": 7.0, "last_updated": "2026-06-13T11:16:06.819600+00:00", "maneuver_count": 0, "owner": "US"}, "58": {"norad_id": "39090", "name": "STRAND-1", "tle1": "1 39090U 13009E   26163.25210112  .00000272  00000-0  10585-3 0  9999", "tle2": "2 39090  98.3921 343.6080 0007529 242.0462 117.9963 14.37160588696350", "object_type": "PAYLOAD", "criticality_score": 9.0, "last_updated": "2026-06-13T11:16:06.819600+00:00", "maneuver_count": 0, "owner": "UK"}, "61": {"norad_id": "37224", "name": "O/OREOS (USA 219)", "tle1": "1 37224U 10062C   26163.84310358  .00002302  00000-0  22291-3 0  9993", "tle2": "2 37224  71.9711  90.1789 0012432  72.5721 287.6808 14.93727150115999", "object_type": "PAYLOAD", "criticality_score": 9.0, "last_updated": "2026-06-13T11:16:06.819600+00:00", "maneuver_count": 0, "owner": "US"}, "63": {"norad_id": "36122", "name": "XIWANG-1 (HOPE-1)", "tle1": "1 36122U 09072B   26163.83593207  .00000337  00000-0  99957-3 0  9992", "tle2": "2 36122 100.4020 117.7371 0006815 242.1374 117.9049 13.16440813792430", "object_type": "PAYLOAD", "criticality_score": 9.0, "last_updated": "2026-06-13T11:16:06.819600+00:00", "maneuver_count": 0, "owner": "PRC"}, "64": {"norad_id": "35935", "name": "ITUPSAT-1", "tle1": "1 35935U 09051E   26162.20832686  .00000614  00000-0  13683-3 0  9997", "tle2": "2 35935  98.4055  68.8386 0006132 256.4621 103.5895 14.60431670887865", "object_type": "PAYLOAD", "criticality_score": 9.0, "last_updated": "2026-06-13T11:16:06.819600+00:00", "maneuver_count": 0, "owner": "TURK"}, "65": {"norad_id": "35933", "name": "BEESAT", "tle1": "1 35933U 09051C   26163.24945813  .00000781  00000-0  16660-3 0  9990", "tle2": "2 35933  98.3970  70.6975 0003996 236.3504 123.7316 14.61713145888465", "object_type": "PAYLOAD", "criticality_score": 9.0, "last_updated": "2026-06-13T11:16:06.819600+00:00", "maneuver_count": 0, "owner": "GER"}, "66": {"norad_id": "35932", "name": "SWISSCUBE", "tle1": "1 35932U 09051B   26162.21632552  .00000804  00000-0  16844-3 0  9998", "tle2": "2 35932  98.4041  70.0006 0005629 224.4191 135.6559 14.62470076888283", "object_type": "PAYLOAD", "criticality_score": 9.0, "last_updated": "2026-06-13T11:16:06.819600+00:00", "maneuver_count": 0, "owner": "SWTZ"}, "67": {"norad_id": "33499", "name": "KKS-1 (KISEKI)", "tle1": "1 33499U 09002H   26163.80381646  .00001256  00000-0  16102-3 0  9990", "tle2": "2 33499  98.1192  86.1766 0006758 312.7391  47.3253 14.83113720935546", "object_type": "PAYLOAD", "criticality_score": 9.0, "last_updated": "2026-06-13T11:16:06.819600+00:00", "maneuver_count": 0, "owner": "JPN"}, "68": {"norad_id": "22825", "name": "EYESAT-A", "tle1": "1 22825U 93061C   26163.17512623  .00000088  00000-0  50602-4 0  9996", "tle2": "2 22825  98.6880 230.5904 0009470 112.6662 247.5523 14.30940991706288", "object_type": "PAYLOAD", "criticality_score": 7.0, "last_updated": "2026-06-13T11:16:06.819600+00:00", "maneuver_count": 0, "owner": "US"}, "88": {"norad_id": "39430", "name": "GOMX 1", "tle1": "1 39430U 13066Q   26163.82796623  .00002189  00000-0  33202-3 0  9999", "tle2": "2 39430  97.6491   4.5668 0130186  91.3655 270.2469 14.69445497669277", "object_type": "PAYLOAD", "criticality_score": 9.0, "last_updated": "2026-06-13T11:16:06.819600+00:00", "maneuver_count": 0, "owner": "DEN"}, "89": {"norad_id": "37841", "name": "SRMSAT", "tle1": "1 37841U 11058D   26162.51581192  .00000355  00000-0  48954-4 0  9994", "tle2": "2 37841  19.9715  93.7945 0011909 141.4141  27.1536 14.11574372757019", "object_type": "PAYLOAD", "criticality_score": 9.0, "last_updated": "2026-06-13T11:16:06.819600+00:00", "maneuver_count": 0, "owner": "IND"}, "90": {"norad_id": "37839", "name": "JUGNU", "tle1": "1 37839U 11058B   26163.16288837  .00000406  00000-0  72629-4 0  9996", "tle2": "2 37839  19.9621 338.9523 0018583  20.9727 136.2305 14.13775454758310", "object_type": "PAYLOAD", "criticality_score": 9.0, "last_updated": "2026-06-13T11:16:06.819600+00:00", "maneuver_count": 0, "owner": "IND"}, "91": {"norad_id": "32785", "name": "CUTE-1.7+APD 2", "tle1": "1 32785U 08021C   26163.87354113  .00005212  00000-0  32974-3 0  9994", "tle2": "2 32785  97.8271 145.2022 0010268  52.3473 307.8685 15.09415432984549", "object_type": "PAYLOAD", "criticality_score": 9.0, "last_updated": "2026-06-13T11:16:06.819600+00:00", "maneuver_count": 0, "owner": "JPN"}, "92": {"norad_id": "28895", "name": "XI-V", "tle1": "1 28895U 05043F   26162.96687193  .00001171  00000-0  19211-3 0  9997", "tle2": "2 28895  98.2978 318.4792 0013339 218.0052 142.0215 14.72617350100987", "object_type": "PAYLOAD", "criticality_score": 9.0, "last_updated": "2026-06-13T11:16:06.819600+00:00", "maneuver_count": 0, "owner": "JPN"}, "94": {"norad_id": "27848", "name": "XI-IV", "tle1": "1 27848U 03031J   26162.96515925  .00000209  00000-0  11102-3 0  9994", "tle2": "2 27848  98.6768 171.3067 0008711 213.1482 146.9152 14.23618048190632", "object_type": "PAYLOAD", "criticality_score": 9.0, "last_updated": "2026-06-13T11:16:06.819600+00:00", "maneuver_count": 0, "owner": "JPN"}, "95": {"norad_id": "27844", "name": "CUTE-1", "tle1": "1 27844U 03031E   26162.97931317  .00000243  00000-0  12418-3 0  9997", "tle2": "2 27844  98.6735 171.6035 0009162 193.3973 166.6964 14.24332546190935", "object_type": "PAYLOAD", "criticality_score": 9.0, "last_updated": "2026-06-13T11:16:06.819600+00:00", "maneuver_count": 0, "owner": "JPN"}, "96": {"norad_id": "26931", "name": "PCSAT", "tle1": "1 26931U 01043C   26162.64152601  .00000072  00000-0  57659-4 0  9996", "tle2": "2 26931  67.0509 258.6152 0006100 264.4327  95.6080 14.31954152289657", "object_type": "PAYLOAD", "criticality_score": 9.0, "last_updated": "2026-06-13T11:16:06.819600+00:00", "maneuver_count": 0, "owner": "US"}, "97": {"norad_id": "25397", "name": "TECHSAT 1B", "tle1": "1 25397U 98043D   26163.84980902  .00000056  00000-0  44194-4 0  9995", "tle2": "2 25397  99.0066 156.4990 0000820 172.7778 187.3412 14.24427638450715", "object_type": "PAYLOAD", "criticality_score": 9.0, "last_updated": "2026-06-13T11:16:06.819600+00:00", "maneuver_count": 0, "owner": "ISRA"}, "99": {"norad_id": "24278", "name": "JAS 2", "tle1": "1 24278U 96046B   26163.80109985  .00000019  00000-0  52055-4 0  9997", "tle2": "2 24278  98.5243  13.2741 0350852 107.7840 256.1904 13.53274026472579", "object_type": "PAYLOAD", "criticality_score": 9.0, "last_updated": "2026-06-13T11:16:06.819600+00:00", "maneuver_count": 0, "owner": "JPN"}, "100": {"norad_id": "22826", "name": "ITAMSAT", "tle1": "1 22826U 93061D   26163.15603373  .00000089  00000-0  50545-4 0  9995", "tle2": "2 22826  98.6828 230.4881 0010077  98.0935 262.1392 14.31367730706595", "object_type": "PAYLOAD", "criticality_score": 7.0, "last_updated": "2026-06-13T11:16:06.819600+00:00", "maneuver_count": 0, "owner": "IT"}, "101": {"norad_id": "20442", "name": "OSCAR 19 (LUSAT)", "tle1": "1 20442U 90005G   26163.78653215  .00000118  00000-0  59009-4 0  9998", "tle2": "2 20442  98.8851 185.4708 0010888 214.6360 145.4115 14.34121964901762", "object_type": "PAYLOAD", "criticality_score": 7.0, "last_updated": "2026-06-13T11:16:06.819600+00:00", "maneuver_count": 0, "owner": "ARGN"}, "128": {"norad_id": "23439", "name": "RADIO ROSTO", "tle1": "1 23439U 94085A   26163.77021561 -.00000059  00000-0 -47671-3 0  9998", "tle2": "2 23439  64.8187 310.3597 0155810   4.6935 355.5410 11.27583565295408", "object_type": "PAYLOAD", "criticality_score": 9.0, "last_updated": "2026-06-13T11:16:06.819600+00:00", "maneuver_count": 0, "owner": "CIS"}, "146": {"norad_id": "27607", "name": "SAUDISAT 1C", "tle1": "1 27607U 02058C   26163.30015445  .00000989  00000-0  13385-3 0  9996", "tle2": "2 27607  64.5507 144.1057 0075372 263.3766  95.8757 14.83036938263737", "object_type": "PAYLOAD", "criticality_score": 9.0, "last_updated": "2026-06-13T11:16:06.819600+00:00", "maneuver_count": 0, "owner": "SAUD"}, "149": {"norad_id": "32791", "name": "SEEDS", "tle1": "1 32791U 08021J   26163.23902191  .00019444  00000-0  61967-3 0  9992", "tle2": "2 32791  97.7515 160.9008 0001816  20.0677 340.0635 15.32585967986533", "object_type": "PAYLOAD", "criticality_score": 9.0, "last_updated": "2026-06-13T11:16:06.819600+00:00", "maneuver_count": 0, "owner": "JPN"}, "153": {"norad_id": "14129", "name": "OSCAR 10", "tle1": "1 14129U 83058B   26158.17238870 -.00000194  00000-0  00000-0 0  9994", "tle2": "2 14129  25.9048 221.2242 6014266 112.9115 319.2048  2.05872980295281", "object_type": "PAYLOAD", "criticality_score": 7.0, "last_updated": "2026-06-13T11:16:06.819600+00:00", "maneuver_count": 0, "owner": "GER"}}}